Delivered-To: ivangayton@gmail.com
Received: by 10.25.22.69 with SMTP id m66csp568839lfi;
        Sun, 19 Jul 2015 04:27:54 -0700 (PDT)
X-Received: by 10.68.68.201 with SMTP id y9mr47504070pbt.143.1437305256367;
        Sun, 19 Jul 2015 04:27:36 -0700 (PDT)
Return-Path: <horizons@ssd.jpl.nasa.gov>
Received: from ssd.jpl.nasa.gov (ssd.jpl.nasa.gov. [128.149.23.134])
        by mx.google.com with ESMTPS id ox1si28428571pdb.28.2015.07.19.04.27.35
        for <ivangayton@gmail.com>
        (version=TLSv1 cipher=RC4-SHA bits=128/128);
        Sun, 19 Jul 2015 04:27:36 -0700 (PDT)
Received-SPF: pass (google.com: best guess record for domain of horizons@ssd.jpl.nasa.gov designates 128.149.23.134 as permitted sender) client-ip=128.149.23.134;
Authentication-Results: mx.google.com;
       spf=pass (google.com: best guess record for domain of horizons@ssd.jpl.nasa.gov designates 128.149.23.134 as permitted sender) smtp.mail=horizons@ssd.jpl.nasa.gov
Received: from ssd.jpl.nasa.gov (localhost.localdomain [127.0.0.1])
	by ssd.jpl.nasa.gov (8.13.8/8.13.8) with ESMTP id t6JBRZNO020841
	for <ivangayton@gmail.com>; Sun, 19 Jul 2015 04:27:35 -0700
Received: (from horizons@localhost)
	by ssd.jpl.nasa.gov (8.13.8/8.13.8/Submit) id t6JBRYqL020839
	for ivangayton@gmail.com; Sun, 19 Jul 2015 04:27:34 -0700
Date: Sun, 19 Jul 2015 04:27:34 -0700
From: Horizons Ephemeris System <horizons@ssd.jpl.nasa.gov>
Message-Id: <201507191127.t6JBRYqL020839@ssd.jpl.nasa.gov>
Subject: MAJOR BODY #C(500@0)_T(799) (1/1)

 Automated mail xmit by MAIL_REQUEST, PID=   20220 Sun Jul 19 04:27:34 2015
++++++++++++++++++++++++++++++++ (part 1 of 1)  +++++++++++++++++++++++++++++++

*******************************************************************************
 Revised: Jan 08, 2014                Uranus                                799
 
 PHYSICAL DATA (updated 2009-May-26):
  Mass (10^24 kg)       =    86.8103      Density (g/cm^3)       =  1.318
  Equat. radius (1 bar) = 25559+-4 km     Polar radius (km)      = 24973+-20
  Volumetric mean radius= 25362+-12 km    Flattening             =  0.02293

  Rotation period       = 17.24+-0.01 hr  Rot. rate(10^-4 rad/s) =  1.012   
  m = w^2a^3/GM         =  0.02954        Hydrostatic flat., fh  =  0.01987
  Inferred rot. period  = 17.14+-0.9 hr   ks = 3*J2/m            =  0.357
  Mom. of inert. I/MRo^2=  0.225          I/MRo^2 (upper bound)  =  0.232 
  Rocky core mass (Mc/M)=  0.0012         Y factor (He/H ratio)  =  0.262+-.048

  GM (km^3/s^2)         = 5,793,966       GM 1-sigma( km^3/s^2)  = +-23
  Equ. grav, ge (m/s^2) =  8.87           Pol. grav, gp (m/s^2)  =  9.19+-0.02

  Geometric albedo      =  0.51           Visual magnitude V(1,0)= -7.19
  Vis. mag. (opposition)= +5.52           Obliquity to orbit     = 97.86 deg
  Sidereal orbit period = 84.016846 yr    Sidereal orbit period  = 30687.153 d
  Mean daily motion     = 0.01176904 dg/d Mean orbit velocity    =  6.8352 km/s

  Atmos. temp. (1 bar)  =  76+-2 K        Heat flow/mass (x10^7) = 
  Planetary Solar Const =   3.71 W/m^2    Dipole tilt/offset     = 58.6dg/0.3Rp 
  Escape velocity (km/s)=  21.3           Mag.dip.mom(gauss-Rp^3)= 0.23
  Aroche(ice)/Rp        =  2.20           Hill's sphere rad., Rp = 2700
*******************************************************************************
 
 
*******************************************************************************
Ephemeris / MAIL_REQUEST Sun Jul 19 04:27:34 2015 Pasadena, USA  / Horizons    
*******************************************************************************
Target body name: Uranus (799)                    {source: URA111}
Center body name: Solar System Barycenter (0)     {source: DE-0431LE-0431}
Center-site name: BODY CENTER
*******************************************************************************
Start time      : A.D. 2015-Jul-19 00:00:00.0000 CT 
Stop  time      : A.D. 2015-Jul-19 00:00:00.0000 CT 
Step-size       : DISCRETE TIME-LIST
*******************************************************************************
Center geodetic : 0.00000000,0.00000000,0.0000000 {E-lon(deg),Lat(deg),Alt(km)}
Center cylindric: 0.00000000,0.00000000,0.0000000 {E-lon(deg),Dxy(km),Dz(km)}
Center radii    : (undefined)                                                  
Output units    : KM-S                                                         
Output format   : 02
Reference frame : ICRF/J2000.0                                                 
Output type     : GEOMETRIC cartesian states
Coordinate systm: Ecliptic and Mean Equinox of Reference Epoch                 
*******************************************************************************
JDCT ,   , X, Y, Z, VX, VY, VZ,
*******************************************************************************
$$SOE
2457222.500000000, A.D. 2015-Jul-19 00:00:00.0000,  2.854531328645716E+09,  8.923901001275948E+08, -3.366684225032246E+07, -2.081570593870096E+00,  6.182305774038236E+00,  4.987237707965164E-02,
$$EOE
*******************************************************************************
Coordinate system description:

  Ecliptic and Mean Equinox of Reference Epoch

    Reference epoch: J2000.0
    xy-plane: plane of the Earth's orbit at the reference epoch
    x-axis  : out along ascending node of instantaneous plane of the Earth's
              orbit and the Earth's mean equator at the reference epoch
    z-axis  : perpendicular to the xy-plane in the directional (+ or -) sense
              of Earth's north pole at the reference epoch.

Symbol meaning  

    JDCT     Epoch Julian Date, Coordinate Time
      X      x-component of position vector (km)                               
      Y      y-component of position vector (km)                               
      Z      z-component of position vector (km)                               
      VX     x-component of velocity vector (km/sec)                           
      VY     y-component of velocity vector (km/sec)                           
      VZ     z-component of velocity vector (km/sec)                           

Geometric states/elements have no aberration corrections applied.

 Computations by ...
     Solar System Dynamics Group, Horizons On-Line Ephemeris System
     4800 Oak Grove Drive, Jet Propulsion Laboratory
     Pasadena, CA  91109   USA
     Information: http://ssd.jpl.nasa.gov/
     Connect    : telnet://ssd.jpl.nasa.gov:6775  (via browser)
                  telnet ssd.jpl.nasa.gov 6775    (via command-line)
     Author     : Jon.Giorgini@jpl.nasa.gov
*******************************************************************************
